KUIPER-00044            
1 64505U 25134F   26024.58562349  .00004072  00000+0  56254-3 0  9998
2 64505  51.8997  81.6185 0010710 123.8189 236.3794 14.79945819 33356
KUIPER-00046            
1 64506U 25134G   26025.00004630  .00045468  00000+0  59509-2 0  9990
2 64506  51.8976  76.2523 0000888  18.2237   7.3050 14.79946813  4305
KUIPER-00047            
1 64507U 25134H   26024.32412829  .00006830  00000+0  99506-3 0  9990
2 64507  51.8998  51.1421 0001801  17.4351 342.6672 14.76762815 33754
KUIPER-00048            
1 64508U 25134J   26024.34945857 -.00001393  00000+0 -15353-3 0  9994
2 64508  51.8990  51.6526 0001630 305.5410  54.5400 14.79967111 33752
KUIPER-00049            
1 64509U 25134K   26024.46937915  .00001040  00000+0  16558-3 0  9999
2 64509  51.9018  64.5956 0001300 158.6490 201.4527 14.79880517 33582
KUIPER-00050            
1 64510U 25134L   26024.37359345  .00011235  00000+0  98264-3 0  9997
2 64510  51.8913  53.3713 0004679 158.0669 202.0502 14.97151649 33732
KUIPER-00051            
1 64511U 25134M   26024.47211030  .00008581  00000+0  11520-2 0  9996
2 64511  51.9025  62.1560 0001279 156.4618 203.6403 14.79977420 33612
KUIPER-00052            
1 64512U 25134N   26025.00004630  .00078168  00000+0  35407-3 0  9992
2 64512  51.8560 332.7789 0003563 141.8589 285.3750 15.83240161  3337
