<?xml version="1.0" encoding="UTF-8"?>
<ndm xmlns:xsi="http://www.w3.org/2001/XMLSchema-instance" xsi:noNamespaceSchemaLocation="https://sanaregistry.org/r/ndmxml_unqualified/ndmxml-2.0.0-master-2.0.xsd">
<omm id="CCSDS_OMM_VERS" version="2.0">
<header><CREATION_DATE/><ORIGINATOR/></header><body><segment><metadata><OBJECT_NAME>KUIPER-00044</OBJECT_NAME><OBJECT_ID>2025-134F</OBJECT_ID><CENTER_NAME>EARTH</CENTER_NAME><REF_FRAME>TEME</REF_FRAME><TIME_SYSTEM>UTC</TIME_SYSTEM><MEAN_ELEMENT_THEORY>SGP4</MEAN_ELEMENT_THEORY></metadata><data><meanElements><EPOCH>2026-01-24T14:03:17.869536</EPOCH><MEAN_MOTION>14.79945819</MEAN_MOTION><ECCENTRICITY>.00107103</ECCENTRICITY><INCLINATION>51.8997</INCLINATION><RA_OF_ASC_NODE>81.6185</RA_OF_ASC_NODE><ARG_OF_PERICENTER>123.8189</ARG_OF_PERICENTER><MEAN_ANOMALY>236.3794</MEAN_ANOMALY></meanElements><tleParameters><EPHEMERIS_TYPE>0</EPHEMERIS_TYPE><CLASSIFICATION_TYPE>U</CLASSIFICATION_TYPE><NORAD_CAT_ID>64505</NORAD_CAT_ID><ELEMENT_SET_NO>999</ELEMENT_SET_NO><REV_AT_EPOCH>3335</REV_AT_EPOCH><BSTAR>.56254154E-3</BSTAR><MEAN_MOTION_DOT>.4072E-4</MEAN_MOTION_DOT><MEAN_MOTION_DDOT>0</MEAN_MOTION_DDOT></tleParameters></data></segment></body></omm>
<omm id="CCSDS_OMM_VERS" version="2.0">
<header><CREATION_DATE/><ORIGINATOR/></header><body><segment><metadata><OBJECT_NAME>KUIPER-00046</OBJECT_NAME><OBJECT_ID>2025-134G</OBJECT_ID><CENTER_NAME>EARTH</CENTER_NAME><REF_FRAME>TEME</REF_FRAME><TIME_SYSTEM>UTC</TIME_SYSTEM><MEAN_ELEMENT_THEORY>SGP4</MEAN_ELEMENT_THEORY></metadata><data><meanElements><EPOCH>2026-01-25T00:00:04.000320</EPOCH><MEAN_MOTION>14.79946813</MEAN_MOTION><ECCENTRICITY>.00008888</ECCENTRICITY><INCLINATION>51.8976</INCLINATION><RA_OF_ASC_NODE>76.2523</RA_OF_ASC_NODE><ARG_OF_PERICENTER>18.2237</ARG_OF_PERICENTER><MEAN_ANOMALY>7.3050</MEAN_ANOMALY></meanElements><tleParameters><EPHEMERIS_TYPE>0</EPHEMERIS_TYPE><CLASSIFICATION_TYPE>U</CLASSIFICATION_TYPE><NORAD_CAT_ID>64506</NORAD_CAT_ID><ELEMENT_SET_NO>999</ELEMENT_SET_NO><REV_AT_EPOCH>430</REV_AT_EPOCH><BSTAR>.59509202E-2</BSTAR><MEAN_MOTION_DOT>.45468E-3</MEAN_MOTION_DOT><MEAN_MOTION_DDOT>0</MEAN_MOTION_DDOT></tleParameters></data></segment></body></omm>
<omm id="CCSDS_OMM_VERS" version="2.0">
<header><CREATION_DATE/><ORIGINATOR/></header><body><segment><metadata><OBJECT_NAME>KUIPER-00047</OBJECT_NAME><OBJECT_ID>2025-134H</OBJECT_ID><CENTER_NAME>EARTH</CENTER_NAME><REF_FRAME>TEME</REF_FRAME><TIME_SYSTEM>UTC</TIME_SYSTEM><MEAN_ELEMENT_THEORY>SGP4</MEAN_ELEMENT_THEORY></metadata><data><meanElements><EPOCH>2026-01-24T07:46:44.684256</EPOCH><MEAN_MOTION>14.76762815</MEAN_MOTION><ECCENTRICITY>.0001801</ECCENTRICITY><INCLINATION>51.8998</INCLINATION><RA_OF_ASC_NODE>51.1421</RA_OF_ASC_NODE><ARG_OF_PERICENTER>17.4351</ARG_OF_PERICENTER><MEAN_ANOMALY>342.6672</MEAN_ANOMALY></meanElements><tleParameters><EPHEMERIS_TYPE>0</EPHEMERIS_TYPE><CLASSIFICATION_TYPE>U</CLASSIFICATION_TYPE><NORAD_CAT_ID>64507</NORAD_CAT_ID><ELEMENT_SET_NO>999</ELEMENT_SET_NO><REV_AT_EPOCH>3375</REV_AT_EPOCH><BSTAR>.99506E-3</BSTAR><MEAN_MOTION_DOT>.683E-4</MEAN_MOTION_DOT><MEAN_MOTION_DDOT>0</MEAN_MOTION_DDOT></tleParameters></data></segment></body></omm>
<omm id="CCSDS_OMM_VERS" version="2.0">
<header><CREATION_DATE/><ORIGINATOR/></header><body><segment><metadata><OBJECT_NAME>KUIPER-00048</OBJECT_NAME><OBJECT_ID>2025-134J</OBJECT_ID><CENTER_NAME>EARTH</CENTER_NAME><REF_FRAME>TEME</REF_FRAME><TIME_SYSTEM>UTC</TIME_SYSTEM><MEAN_ELEMENT_THEORY>SGP4</MEAN_ELEMENT_THEORY></metadata><data><meanElements><EPOCH>2026-01-24T08:23:13.220448</EPOCH><MEAN_MOTION>14.79967111</MEAN_MOTION><ECCENTRICITY>.00016305</ECCENTRICITY><INCLINATION>51.8990</INCLINATION><RA_OF_ASC_NODE>51.6526</RA_OF_ASC_NODE><ARG_OF_PERICENTER>305.5410</ARG_OF_PERICENTER><MEAN_ANOMALY>54.5400</MEAN_ANOMALY></meanElements><tleParameters><EPHEMERIS_TYPE>0</EPHEMERIS_TYPE><CLASSIFICATION_TYPE>U</CLASSIFICATION_TYPE><NORAD_CAT_ID>64508</NORAD_CAT_ID><ELEMENT_SET_NO>999</ELEMENT_SET_NO><REV_AT_EPOCH>3375</REV_AT_EPOCH><BSTAR>-.15353151E-3</BSTAR><MEAN_MOTION_DOT>-.1393E-4</MEAN_MOTION_DOT><MEAN_MOTION_DDOT>0</MEAN_MOTION_DDOT></tleParameters></data></segment></body></omm>
<omm id="CCSDS_OMM_VERS" version="2.0">
<header><CREATION_DATE/><ORIGINATOR/></header><body><segment><metadata><OBJECT_NAME>KUIPER-00049</OBJECT_NAME><OBJECT_ID>2025-134K</OBJECT_ID><CENTER_NAME>EARTH</CENTER_NAME><REF_FRAME>TEME</REF_FRAME><TIME_SYSTEM>UTC</TIME_SYSTEM><MEAN_ELEMENT_THEORY>SGP4</MEAN_ELEMENT_THEORY></metadata><data><meanElements><EPOCH>2026-01-24T11:15:54.358560</EPOCH><MEAN_MOTION>14.79880517</MEAN_MOTION><ECCENTRICITY>.00013005</ECCENTRICITY><INCLINATION>51.9018</INCLINATION><RA_OF_ASC_NODE>64.5956</RA_OF_ASC_NODE><ARG_OF_PERICENTER>158.6490</ARG_OF_PERICENTER><MEAN_ANOMALY>201.4527</MEAN_ANOMALY></meanElements><tleParameters><EPHEMERIS_TYPE>0</EPHEMERIS_TYPE><CLASSIFICATION_TYPE>U</CLASSIFICATION_TYPE><NORAD_CAT_ID>64509</NORAD_CAT_ID><ELEMENT_SET_NO>999</ELEMENT_SET_NO><REV_AT_EPOCH>3358</REV_AT_EPOCH><BSTAR>.16558418E-3</BSTAR><MEAN_MOTION_DOT>.104E-4</MEAN_MOTION_DOT><MEAN_MOTION_DDOT>0</MEAN_MOTION_DDOT></tleParameters></data></segment></body></omm>
<omm id="CCSDS_OMM_VERS" version="2.0">
<header><CREATION_DATE/><ORIGINATOR/></header><body><segment><metadata><OBJECT_NAME>KUIPER-00050</OBJECT_NAME><OBJECT_ID>2025-134L</OBJECT_ID><CENTER_NAME>EARTH</CENTER_NAME><REF_FRAME>TEME</REF_FRAME><TIME_SYSTEM>UTC</TIME_SYSTEM><MEAN_ELEMENT_THEORY>SGP4</MEAN_ELEMENT_THEORY></metadata><data><meanElements><EPOCH>2026-01-24T08:57:58.474080</EPOCH><MEAN_MOTION>14.97151649</MEAN_MOTION><ECCENTRICITY>.00046797</ECCENTRICITY><INCLINATION>51.8913</INCLINATION><RA_OF_ASC_NODE>53.3713</RA_OF_ASC_NODE><ARG_OF_PERICENTER>158.0669</ARG_OF_PERICENTER><MEAN_ANOMALY>202.0502</MEAN_ANOMALY></meanElements><tleParameters><EPHEMERIS_TYPE>0</EPHEMERIS_TYPE><CLASSIFICATION_TYPE>U</CLASSIFICATION_TYPE><NORAD_CAT_ID>64510</NORAD_CAT_ID><ELEMENT_SET_NO>999</ELEMENT_SET_NO><REV_AT_EPOCH>3373</REV_AT_EPOCH><BSTAR>.98264367E-3</BSTAR><MEAN_MOTION_DOT>.11235E-3</MEAN_MOTION_DOT><MEAN_MOTION_DDOT>0</MEAN_MOTION_DDOT></tleParameters></data></segment></body></omm>
<omm id="CCSDS_OMM_VERS" version="2.0">
<header><CREATION_DATE/><ORIGINATOR/></header><body><segment><metadata><OBJECT_NAME>KUIPER-00051</OBJECT_NAME><OBJECT_ID>2025-134M</OBJECT_ID><CENTER_NAME>EARTH</CENTER_NAME><REF_FRAME>TEME</REF_FRAME><TIME_SYSTEM>UTC</TIME_SYSTEM><MEAN_ELEMENT_THEORY>SGP4</MEAN_ELEMENT_THEORY></metadata><data><meanElements><EPOCH>2026-01-24T11:19:50.329920</EPOCH><MEAN_MOTION>14.79977420</MEAN_MOTION><ECCENTRICITY>.00012797</ECCENTRICITY><INCLINATION>51.9025</INCLINATION><RA_OF_ASC_NODE>62.1560</RA_OF_ASC_NODE><ARG_OF_PERICENTER>156.4618</ARG_OF_PERICENTER><MEAN_ANOMALY>203.6403</MEAN_ANOMALY></meanElements><tleParameters><EPHEMERIS_TYPE>0</EPHEMERIS_TYPE><CLASSIFICATION_TYPE>U</CLASSIFICATION_TYPE><NORAD_CAT_ID>64511</NORAD_CAT_ID><ELEMENT_SET_NO>999</ELEMENT_SET_NO><REV_AT_EPOCH>3361</REV_AT_EPOCH><BSTAR>.11520228E-2</BSTAR><MEAN_MOTION_DOT>.8581E-4</MEAN_MOTION_DOT><MEAN_MOTION_DDOT>0</MEAN_MOTION_DDOT></tleParameters></data></segment></body></omm>
<omm id="CCSDS_OMM_VERS" version="2.0">
<header><CREATION_DATE/><ORIGINATOR/></header><body><segment><metadata><OBJECT_NAME>KUIPER-00052</OBJECT_NAME><OBJECT_ID>2025-134N</OBJECT_ID><CENTER_NAME>EARTH</CENTER_NAME><REF_FRAME>TEME</REF_FRAME><TIME_SYSTEM>UTC</TIME_SYSTEM><MEAN_ELEMENT_THEORY>SGP4</MEAN_ELEMENT_THEORY></metadata><data><meanElements><EPOCH>2026-01-25T00:00:04.000320</EPOCH><MEAN_MOTION>15.83240161</MEAN_MOTION><ECCENTRICITY>.0003563</ECCENTRICITY><INCLINATION>51.8560</INCLINATION><RA_OF_ASC_NODE>332.7789</RA_OF_ASC_NODE><ARG_OF_PERICENTER>141.8589</ARG_OF_PERICENTER><MEAN_ANOMALY>285.3750</MEAN_ANOMALY></meanElements><tleParameters><EPHEMERIS_TYPE>0</EPHEMERIS_TYPE><CLASSIFICATION_TYPE>U</CLASSIFICATION_TYPE><NORAD_CAT_ID>64512</NORAD_CAT_ID><ELEMENT_SET_NO>999</ELEMENT_SET_NO><REV_AT_EPOCH>333</REV_AT_EPOCH><BSTAR>.35406567E-3</BSTAR><MEAN_MOTION_DOT>.78168E-3</MEAN_MOTION_DOT><MEAN_MOTION_DDOT>0</MEAN_MOTION_DDOT></tleParameters></data></segment></body></omm>

</ndm>
